[{"OBJECT_NAME":"STARLINK-30765","OBJECT_ID":"2023-162B","EPOCH":"2026-03-21T15:57:47.354688","MEAN_MOTION":15.26761731,"ECCENTRICITY":0.0001613,"INCLINATION":43.0051,"RA_OF_ASC_NODE":64.4123,"ARG_OF_PERICENTER":260.1568,"MEAN_ANOMALY":99.9101,"EPHEMERIS_TYPE":0,"CLASSIFICATION_TYPE":"U","NORAD_CAT_ID":58119,"ELEMENT_SET_NO":999,"REV_AT_EPOCH":13414,"BSTAR":0.00010517252,"MEAN_MOTION_DOT":2.564e-5,"MEAN_MOTION_DDOT":0},{"OBJECT_NAME":"STARLINK-30768","OBJECT_ID":"2023-162C","EPOCH":"2026-03-21T06:20:49.731936","MEAN_MOTION":15.26748569,"ECCENTRICITY":7.631e-5,"INCLINATION":43.0014,"RA_OF_ASC_NODE":66.5813,"ARG_OF_PERICENTER":278.8194,"MEAN_ANOMALY":81.2571,"EPHEMERIS_TYPE":0,"CLASSIFICATION_TYPE":"U","NORAD_CAT_ID":58120,"ELEMENT_SET_NO":999,"REV_AT_EPOCH":13408,"BSTAR":2.8656167e-5,"MEAN_MOTION_DOT":5.09e-6,"MEAN_MOTION_DDOT":0},{"OBJECT_NAME":"STARLINK-30799","OBJECT_ID":"2023-162D","EPOCH":"2026-03-21T22:30:43.033248","MEAN_MOTION":15.26746871,"ECCENTRICITY":0.00012707,"INCLINATION":43.0038,"RA_OF_ASC_NODE":63.0217,"ARG_OF_PERICENTER":259.3398,"MEAN_ANOMALY":100.731,"EPHEMERIS_TYPE":0,"CLASSIFICATION_TYPE":"U","NORAD_CAT_ID":58121,"ELEMENT_SET_NO":999,"REV_AT_EPOCH":13418,"BSTAR":0.00013688866,"MEAN_MOTION_DOT":3.414e-5,"MEAN_MOTION_DDOT":0},{"OBJECT_NAME":"STARLINK-30759","OBJECT_ID":"2023-162E","EPOCH":"2026-03-21T09:38:07.050336","MEAN_MOTION":15.26752776,"ECCENTRICITY":0.0001095,"INCLINATION":43.0033,"RA_OF_ASC_NODE":65.8877,"ARG_OF_PERICENTER":267.3807,"MEAN_ANOMALY":92.6919,"EPHEMERIS_TYPE":0,"CLASSIFICATION_TYPE":"U","NORAD_CAT_ID":58122,"ELEMENT_SET_NO":999,"REV_AT_EPOCH":13411,"BSTAR":7.1440282e-5,"MEAN_MOTION_DOT":1.658e-5,"MEAN_MOTION_DDOT":0},{"OBJECT_NAME":"STARLINK-30781","OBJECT_ID":"2023-162F","EPOCH":"2026-03-21T22:47:20.472000","MEAN_MOTION":15.26777357,"ECCENTRICITY":0.00016824,"INCLINATION":43.0041,"RA_OF_ASC_NODE":63.1231,"ARG_OF_PERICENTER":249.4312,"MEAN_ANOMALY":110.6359,"EPHEMERIS_TYPE":0,"CLASSIFICATION_TYPE":"U","NORAD_CAT_ID":58123,"ELEMENT_SET_NO":999,"REV_AT_EPOCH":13418,"BSTAR":0.00024245003,"MEAN_MOTION_DOT":6.256e-5,"MEAN_MOTION_DDOT":0},{"OBJECT_NAME":"STARLINK-30754","OBJECT_ID":"2023-162G","EPOCH":"2026-03-21T05:39:24.384096","MEAN_MOTION":15.27571041,"ECCENTRICITY":8.865e-5,"INCLINATION":43.0033,"RA_OF_ASC_NODE":67.212,"ARG_OF_PERICENTER":207.6713,"MEAN_ANOMALY":152.4092,"EPHEMERIS_TYPE":0,"CLASSIFICATION_TYPE":"U","NORAD_CAT_ID":58124,"ELEMENT_SET_NO":999,"REV_AT_EPOCH":12828,"BSTAR":1.3334937e-5,"MEAN_MOTION_DOT":1.05e-6,"MEAN_MOTION_DDOT":0},{"OBJECT_NAME":"STARLINK-30766","OBJECT_ID":"2023-162H","EPOCH":"2026-03-21T09:19:51.297888","MEAN_MOTION":15.27582625,"ECCENTRICITY":0.00012372,"INCLINATION":43.0038,"RA_OF_ASC_NODE":63.2434,"ARG_OF_PERICENTER":278.289,"MEAN_ANOMALY":81.7821,"EPHEMERIS_TYPE":0,"CLASSIFICATION_TYPE":"U","NORAD_CAT_ID":58125,"ELEMENT_SET_NO":999,"REV_AT_EPOCH":13413,"BSTAR":0.00014247678,"MEAN_MOTION_DOT":3.661e-5,"MEAN_MOTION_DDOT":0},{"OBJECT_NAME":"STARLINK-30767","OBJECT_ID":"2023-162J","EPOCH":"2026-03-21T06:07:52.741920","MEAN_MOTION":15.27570342,"ECCENTRICITY":0.00010399,"INCLINATION":43.0005,"RA_OF_ASC_NODE":63.9579,"ARG_OF_PERICENTER":231.0663,"MEAN_ANOMALY":129.0096,"EPHEMERIS_TYPE":0,"CLASSIFICATION_TYPE":"U","NORAD_CAT_ID":58126,"ELEMENT_SET_NO":999,"REV_AT_EPOCH":13411,"BSTAR":0.00059816869,"MEAN_MOTION_DOT":0.0001623,"MEAN_MOTION_DDOT":0},{"OBJECT_NAME":"STARLINK-30790","OBJECT_ID":"2023-162K","EPOCH":"2026-03-21T05:34:45.957504","MEAN_MOTION":15.1401707,"ECCENTRICITY":0.00103655,"INCLINATION":42.9995,"RA_OF_ASC_NODE":63.8217,"ARG_OF_PERICENTER":119.6592,"MEAN_ANOMALY":240.5288,"EPHEMERIS_TYPE":0,"CLASSIFICATION_TYPE":"U","NORAD_CAT_ID":58127,"ELEMENT_SET_NO":999,"REV_AT_EPOCH":13411,"BSTAR":0.0028477149,"MEAN_MOTION_DOT":0.00052877,"MEAN_MOTION_DDOT":0},{"OBJECT_NAME":"STARLINK-30787","OBJECT_ID":"2023-162L","EPOCH":"2026-03-21T21:51:15.452064","MEAN_MOTION":15.2758083,"ECCENTRICITY":0.00013726,"INCLINATION":43.0002,"RA_OF_ASC_NODE":60.2744,"ARG_OF_PERICENTER":256.6212,"MEAN_ANOMALY":103.4486,"EPHEMERIS_TYPE":0,"CLASSIFICATION_TYPE":"U","NORAD_CAT_ID":58128,"ELEMENT_SET_NO":999,"REV_AT_EPOCH":13421,"BSTAR":7.5674402e-5,"MEAN_MOTION_DOT":1.821e-5,"MEAN_MOTION_DDOT":0},{"OBJECT_NAME":"STARLINK-30756","OBJECT_ID":"2023-162M","EPOCH":"2026-03-21T05:40:45.568992","MEAN_MOTION":15.26730295,"ECCENTRICITY":0.00013739,"INCLINATION":43.0049,"RA_OF_ASC_NODE":67.2191,"ARG_OF_PERICENTER":264.103,"MEAN_ANOMALY":95.9665,"EPHEMERIS_TYPE":0,"CLASSIFICATION_TYPE":"U","NORAD_CAT_ID":58129,"ELEMENT_SET_NO":999,"REV_AT_EPOCH":13407,"BSTAR":0.00035434137,"MEAN_MOTION_DOT":9.254e-5,"MEAN_MOTION_DDOT":0},{"OBJECT_NAME":"STARLINK-30783","OBJECT_ID":"2023-162N","EPOCH":"2026-03-21T15:25:22.533888","MEAN_MOTION":15.27588026,"ECCENTRICITY":0.0001104,"INCLINATION":43.0019,"RA_OF_ASC_NODE":61.702,"ARG_OF_PERICENTER":276.7916,"MEAN_ANOMALY":83.281,"EPHEMERIS_TYPE":0,"CLASSIFICATION_TYPE":"U","NORAD_CAT_ID":58130,"ELEMENT_SET_NO":999,"REV_AT_EPOCH":13417,"BSTAR":8.1819739e-5,"MEAN_MOTION_DOT":1.991e-5,"MEAN_MOTION_DDOT":0},{"OBJECT_NAME":"STARLINK-30757","OBJECT_ID":"2023-162P","EPOCH":"2026-03-21T05:54:53.810496","MEAN_MOTION":15.27580625,"ECCENTRICITY":0.00011852,"INCLINATION":43.0021,"RA_OF_ASC_NODE":63.8875,"ARG_OF_PERICENTER":279.2297,"MEAN_ANOMALY":80.842,"EPHEMERIS_TYPE":0,"CLASSIFICATION_TYPE":"U","NORAD_CAT_ID":58131,"ELEMENT_SET_NO":999,"REV_AT_EPOCH":13411,"BSTAR":4.5459438e-5,"MEAN_MOTION_DOT":9.89e-6,"MEAN_MOTION_DDOT":0},{"OBJECT_NAME":"STARLINK-30770","OBJECT_ID":"2023-162Q","EPOCH":"2026-03-21T05:54:11.875392","MEAN_MOTION":15.27508281,"ECCENTRICITY":0.00016594,"INCLINATION":43.0037,"RA_OF_ASC_NODE":67.2762,"ARG_OF_PERICENTER":266.8908,"MEAN_ANOMALY":93.1753,"EPHEMERIS_TYPE":0,"CLASSIFICATION_TYPE":"U","NORAD_CAT_ID":58132,"ELEMENT_SET_NO":999,"REV_AT_EPOCH":13406,"BSTAR":0.00072841785,"MEAN_MOTION_DOT":0.00019792,"MEAN_MOTION_DDOT":0},{"OBJECT_NAME":"STARLINK-30758","OBJECT_ID":"2023-162R","EPOCH":"2026-03-21T15:27:12.836448","MEAN_MOTION":15.27607874,"ECCENTRICITY":9.917e-5,"INCLINATION":43.0023,"RA_OF_ASC_NODE":61.7089,"ARG_OF_PERICENTER":268.9527,"MEAN_ANOMALY":91.1211,"EPHEMERIS_TYPE":0,"CLASSIFICATION_TYPE":"U","NORAD_CAT_ID":58133,"ELEMENT_SET_NO":999,"REV_AT_EPOCH":13417,"BSTAR":-4.4991869e-5,"MEAN_MOTION_DOT":-1.501e-5,"MEAN_MOTION_DDOT":0},{"OBJECT_NAME":"STARLINK-30761","OBJECT_ID":"2023-162S","EPOCH":"2026-03-21T15:24:40.008672","MEAN_MOTION":15.27595407,"ECCENTRICITY":0.00011877,"INCLINATION":42.9997,"RA_OF_ASC_NODE":65.0928,"ARG_OF_PERICENTER":268.8068,"MEAN_ANOMALY":91.2648,"EPHEMERIS_TYPE":0,"CLASSIFICATION_TYPE":"U","NORAD_CAT_ID":58134,"ELEMENT_SET_NO":999,"REV_AT_EPOCH":13413,"BSTAR":0.00022779012,"MEAN_MOTION_DOT":6.014e-5,"MEAN_MOTION_DDOT":0}]
