STARLINK-30765          
1 58119U 23162B   26080.66513142  .00002564  00000+0  10517-3 0  9995
2 58119  43.0051  64.4123 0001613 260.1568  99.9101 15.26761731134149
STARLINK-30768          
1 58120U 23162C   26080.26446449  .00000509  00000+0  28656-4 0  9999
2 58120  43.0014  66.5813 0000763 278.8194  81.2571 15.26748569134087
STARLINK-30799          
1 58121U 23162D   26080.93799807  .00003414  00000+0  13689-3 0  9990
2 58121  43.0038  63.0217 0001270 259.3398 100.7310 15.26746871134181
STARLINK-30759          
1 58122U 23162E   26080.40147049  .00001658  00000+0  71440-4 0  9996
2 58122  43.0033  65.8877 0001095 267.3807  92.6919 15.26752776134116
STARLINK-30781          
1 58123U 23162F   26080.94954250  .00006256  00000+0  24245-3 0  9995
2 58123  43.0041  63.1231 0001682 249.4312 110.6359 15.26777357134183
STARLINK-30754          
1 58124U 23162G   26080.23569889  .00000105  00000+0  13335-4 0  9994
2 58124  43.0033  67.2120 0000886 207.6713 152.4092 15.27571041128288
STARLINK-30766          
1 58125U 23162H   26080.38878817  .00003661  00000+0  14248-3 0  9998
2 58125  43.0038  63.2434 0001237 278.2890  81.7821 15.27582625134134
STARLINK-30767          
1 58126U 23162J   26080.25547155  .00016230  00000+0  59817-3 0  9990
2 58126  43.0005  63.9579 0001039 231.0663 129.0096 15.27570342134112
STARLINK-30790          
1 58127U 23162K   26080.23247636  .00052877  00000+0  28477-2 0  9994
2 58127  42.9995  63.8217 0010365 119.6592 240.5288 15.14017070134113
STARLINK-30787          
1 58128U 23162L   26080.91059551  .00001821  00000+0  75674-4 0  9993
2 58128  43.0002  60.2744 0001372 256.6212 103.4486 15.27580830134211
STARLINK-30756          
1 58129U 23162M   26080.23663853  .00009254  00000+0  35434-3 0  9992
2 58129  43.0049  67.2191 0001373 264.1030  95.9665 15.26730295134078
STARLINK-30783          
1 58130U 23162N   26080.64262192  .00001991  00000+0  81820-4 0  9991
2 58130  43.0019  61.7020 0001104 276.7916  83.2810 15.27588026134178
STARLINK-30757          
1 58131U 23162P   26080.24645614  .00000989  00000+0  45459-4 0  9996
2 58131  43.0021  63.8875 0001185 279.2297  80.8420 15.27580625134113
STARLINK-30770          
1 58132U 23162Q   26080.24597078  .00019792  00000+0  72842-3 0  9994
2 58132  43.0037  67.2762 0001659 266.8908  93.1753 15.27508281134069
STARLINK-30758          
1 58133U 23162R   26080.64389857 -.00001501  00000+0 -44992-4 0  9990
2 58133  43.0023  61.7089 0000991 268.9527  91.1211 15.27607874134171
STARLINK-30761          
1 58134U 23162S   26080.64212973  .00006014  00000+0  22779-3 0  9995
2 58134  42.9997  65.0928 0001187 268.8068  91.2648 15.27595407134135
